SENTINEL-6              
1 46984U 20086A   24017.60817862 -.00000037  00000+0  10504-3 0  9992
2 46984  66.0402 166.1000 0007688 269.6840  90.3294 12.80930242147414
